[
    {
        "Altitude(m)": 571642.754417757,
        "Argument of Periapsis(deg)": 0.026491964442854003,
        "Eccentricity": 0.0,
        "Inclination(deg)": 53.0,
        "Latitude(deg)": -52.62889244141625,
        "Longitude(deg)": 87.92753394874798,
        "Mean Anomaly(deg)": -83.26992852968972,
        "RAAN(deg)": 269.96057347411204,
        "Satellite Name": "Starlink Shell 1 1202",
        "Satellite Number": 1202,
        "Semi-Major Axis(m)": 6931778.249405717,
        "Time(s)": 760
    },
    {
        "Altitude(m)": 571603.7673676612,
        "Argument of Periapsis(deg)": 0.02684054292236524,
        "Eccentricity": 0.0,
        "Inclination(deg)": 53.0,
        "Latitude(deg)": -52.528391536592615,
        "Longitude(deg)": 88.8980953743698,
        "Mean Anomaly(deg)": -82.64309732613283,
        "RAAN(deg)": 269.9600547040346,
        "Satellite Name": "Starlink Shell 1 1202",
        "Satellite Number": 1202,
        "Semi-Major Axis(m)": 6931778.249405717,
        "Time(s)": 770
    },
    {
        "Altitude(m)": 571561.3951277682,
        "Argument of Periapsis(deg)": 0.027189121401876473,
        "Eccentricity": 0.0,
        "Inclination(deg)": 53.0,
        "Latitude(deg)": -52.41928320425721,
        "Longitude(deg)": 89.86385965565464,
        "Mean Anomaly(deg)": -82.01626612257621,
        "RAAN(deg)": 269.95953593395717,
        "Satellite Name": "Starlink Shell 1 1202",
        "Satellite Number": 1202,
        "Semi-Major Axis(m)": 6931778.249405717,
        "Time(s)": 780
    },
    {
        "Altitude(m)": 571515.6545780529,
        "Argument of Periapsis(deg)": 0.02753769988138771,
        "Eccentricity": 0.0,
        "Inclination(deg)": 53.0,
        "Latitude(deg)": -52.301642782781386,
        "Longitude(deg)": 90.82448085726901,
        "Mean Anomaly(deg)": -81.38943491901955,
        "RAAN(deg)": 269.95901716387965,
        "Satellite Name": "Starlink Shell 1 1202",
        "Satellite Number": 1202,
        "Semi-Major Axis(m)": 6931778.249405717,
        "Time(s)": 790
    },
    {
        "Altitude(m)": 571466.5639394296,
        "Argument of Periapsis(deg)": 0.02788627836089895,
        "Eccentricity": 0.0,
        "Inclination(deg)": 53.0,
        "Latitude(deg)": -52.17555053517584,
        "Longitude(deg)": 91.77962621766004,
        "Mean Anomaly(deg)": -80.76260371546277,
        "RAAN(deg)": 269.95849839380213,
        "Satellite Name": "Starlink Shell 1 1202",
        "Satellite Number": 1202,
        "Semi-Major Axis(m)": 6931778.249405717,
        "Time(s)": 800
    },
    {
        "Altitude(m)": 571414.1427658452,
        "Argument of Periapsis(deg)": 0.02823485684041019,
        "Eccentricity": 0.0,
        "Inclination(deg)": 53.0,
        "Latitude(deg)": -52.04109139437535,
        "Longitude(deg)": 92.72897726314159,
        "Mean Anomaly(deg)": -80.13577251190603,
        "RAAN(deg)": 269.9579796237247,
        "Satellite Name": "Starlink Shell 1 1202",
        "Satellite Number": 1202,
        "Semi-Major Axis(m)": 6931778.249405717,
        "Time(s)": 810
    },
    {
        "Altitude(m)": 571358.4119358335,
        "Argument of Periapsis(deg)": 0.028583435319921423,
        "Eccentricity": 0.0,
        "Inclination(deg)": 53.0,
        "Latitude(deg)": -51.89835469985218,
        "Longitude(deg)": 93.6722308358392,
        "Mean Anomaly(deg)": -79.50894130834936,
        "RAAN(deg)": 269.95746085364726,
        "Satellite Name": "Starlink Shell 1 1202",
        "Satellite Number": 1202,
        "Semi-Major Axis(m)": 6931778.249405717,
        "Time(s)": 820
    },
    {
        "Altitude(m)": 571299.3936434606,
        "Argument of Periapsis(deg)": 0.028932013799432665,
        "Eccentricity": 0.0,
        "Inclination(deg)": 53.0,
        "Latitude(deg)": -51.74743392717701,
        "Longitude(deg)": 94.6090985236845,
        "Mean Anomaly(deg)": -78.88211010479269,
        "RAAN(deg)": 269.95694208356974,
        "Satellite Name": "Starlink Shell 1 1202",
        "Satellite Number": 1202,
        "Semi-Major Axis(m)": 6931778.249405717,
        "Time(s)": 830
    },
    {
        "Altitude(m)": 571237.1113887237,
        "Argument of Periapsis(deg)": 0.029280592278943897,
        "Eccentricity": 0.0,
        "Inclination(deg)": 53.0,
        "Latitude(deg)": -51.58842641233349,
        "Longitude(deg)": 95.53930751827345,
        "Mean Anomaly(deg)": -78.25527890123585,
        "RAAN(deg)": 269.9564233134923,
        "Satellite Name": "Starlink Shell 1 1202",
        "Satellite Number": 1202,
        "Semi-Major Axis(m)": 6931778.249405717,
        "Time(s)": 840
    },
    {
        "Altitude(m)": 571171.5899673655,
        "Argument of Periapsis(deg)": 0.029629170758455132,
        "Eccentricity": 0.0,
        "Inclination(deg)": 53.0,
        "Latitude(deg)": -51.421433072486614,
        "Longitude(deg)": 96.46260138915476,
        "Mean Anomaly(deg)": -77.62844769767919,
        "RAAN(deg)": 269.9559045434148,
        "Satellite Name": "Starlink Shell 1 1202",
        "Satellite Number": 1202,
        "Semi-Major Axis(m)": 6931778.249405717,
        "Time(s)": 850
    },
    {
        "Altitude(m)": 571102.8554601091,
        "Argument of Periapsis(deg)": 0.02997774923796637,
        "Eccentricity": 0.0,
        "Inclination(deg)": 53.0,
        "Latitude(deg)": -51.24655812485841,
        "Longitude(deg)": 97.37873909565421,
        "Mean Anomaly(deg)": -77.0016164941225,
        "RAAN(deg)": 269.9553857733373,
        "Satellite Name": "Starlink Shell 1 1202",
        "Satellite Number": 1202,
        "Semi-Major Axis(m)": 6931778.249405717,
        "Time(s)": 860
    },
    {
        "Altitude(m)": 571030.9352213764,
        "Argument of Periapsis(deg)": 0.030326327717477602,
        "Eccentricity": 0.0,
        "Inclination(deg)": 53.0,
        "Latitude(deg)": -51.06390880529522,
        "Longitude(deg)": 98.28749644135844,
        "Mean Anomaly(deg)": -76.37478529056568,
        "RAAN(deg)": 269.9548670032599,
        "Satellite Name": "Starlink Shell 1 1202",
        "Satellite Number": 1202,
        "Semi-Major Axis(m)": 6931778.249405717,
        "Time(s)": 870
    },
    {
        "Altitude(m)": 570955.8578674047,
        "Argument of Periapsis(deg)": 0.030674906196988847,
        "Eccentricity": 0.0,
        "Inclination(deg)": 53.0,
        "Latitude(deg)": -50.873595088027905,
        "Longitude(deg)": 99.1886649316423,
        "Mean Anomaly(deg)": -75.747954087009,
        "RAAN(deg)": 269.9543482331824,
        "Satellite Name": "Starlink Shell 1 1202",
        "Satellite Number": 1202,
        "Semi-Major Axis(m)": 6931778.249405717,
        "Time(s)": 880
    },
    {
        "Altitude(m)": 570877.6532638301,
        "Argument of Periapsis(deg)": 0.031023484676500086,
        "Eccentricity": 0.0,
        "Inclination(deg)": 53.0,
        "Latitude(deg)": -50.67572940803243,
        "Longitude(deg)": 100.08205224043255,
        "Mean Anomaly(deg)": -75.12112288345234,
        "RAAN(deg)": 269.9538294631049,
        "Satellite Name": "Starlink Shell 1 1202",
        "Satellite Number": 1202,
        "Semi-Major Axis(m)": 6931778.249405717,
        "Time(s)": 890
    },
    {
        "Altitude(m)": 570796.3525127257,
        "Argument of Periapsis(deg)": 0.03137206315601132,
        "Eccentricity": 0.0,
        "Inclination(deg)": 53.0,
        "Latitude(deg)": -50.47042638729955,
        "Longitude(deg)": 100.9674826094208,
        "Mean Anomaly(deg)": -74.49429167989561,
        "RAAN(deg)": 269.9533106930275,
        "Satellite Name": "Starlink Shell 1 1202",
        "Satellite Number": 1202,
        "Semi-Major Axis(m)": 6931778.249405717,
        "Time(s)": 900
    },
    {
        "Altitude(m)": 570711.9879391043,
        "Argument of Periapsis(deg)": 0.03172064163552255,
        "Eccentricity": 0.0,
        "Inclination(deg)": 53.0,
        "Latitude(deg)": -50.25780256621131,
        "Longitude(deg)": 101.84479567137495,
        "Mean Anomaly(deg)": -73.86746047633892,
        "RAAN(deg)": 269.95279192295,
        "Satellite Name": "Starlink Shell 1 1202",
        "Satellite Number": 1202,
        "Semi-Major Axis(m)": 6931778.249405717,
        "Time(s)": 910
    },
    {
        "Altitude(m)": 570624.593076852,
        "Argument of Periapsis(deg)": 0.0320692201150338,
        "Eccentricity": 0.0,
        "Inclination(deg)": 53.0,
        "Latitude(deg)": -50.03797614111157,
        "Longitude(deg)": 102.71384672806244,
        "Mean Anomaly(deg)": -73.24062927278214,
        "RAAN(deg)": 269.95227315287246,
        "Satellite Name": "Starlink Shell 1 1202",
        "Satellite Number": 1202,
        "Semi-Major Axis(m)": 6931778.249405717,
        "Time(s)": 920
    },
    {
        "Altitude(m)": 570534.2026541717,
        "Argument of Periapsis(deg)": 0.032417798594545036,
        "Eccentricity": 0.0,
        "Inclination(deg)": 53.0,
        "Latitude(deg)": -49.811066709042684,
        "Longitude(deg)": 103.5745069748595,
        "Mean Anomaly(deg)": -72.61379806922552,
        "RAAN(deg)": 269.951754382795,
        "Satellite Name": "Starlink Shell 1 1202",
        "Satellite Number": 1202,
        "Semi-Major Axis(m)": 6931778.249405717,
        "Time(s)": 930
    },
    {
        "Altitude(m)": 570440.8525784677,
        "Argument of Periapsis(deg)": 0.03276637707405627,
        "Eccentricity": 0.0,
        "Inclination(deg)": 53.0,
        "Latitude(deg)": -49.5771950205021,
        "Longitude(deg)": 104.42666216424045,
        "Mean Anomaly(deg)": -71.98696686566876,
        "RAAN(deg)": 269.95123561271754,
        "Satellite Name": "Starlink Shell 1 1202",
        "Satellite Number": 1202,
        "Semi-Major Axis(m)": 6931778.249405717,
        "Time(s)": 940
    }
]